COSMOS 2425 (716)       
1 29670U 06062A   18178.51138914 -.00000043  00000-0  10000-3 0  9997
2 29670  65.2738 292.1867 0020295 348.0630  84.4104  2.13104939 89532
COSMOS 2426 (717)       
1 29671U 06062B   18178.18123190 -.00000046  00000-0  10000-3 0  9994
2 29671  65.2918 292.2973 0018951 163.8304 231.0290  2.13102840 89534
COSMOS 2433 (720)       
1 32275U 07052A   18178.20294451 -.00000049  00000-0  10000-3 0  9993
2 32275  65.6908  53.0266 0001817 298.8383  88.2927  2.13104398 83047
COSMOS 2432 (719)       
1 32276U 07052B   18177.97833060 -.00000050  00000-0  10000-3 0  9994
2 32276  65.7044  53.1109 0011850 341.3186 185.4537  2.13103901 83035
COSMOS 2434 (721)       
1 32393U 07065A   18178.43240765 -.00000043  00000-0  00000+0 0  9991
2 32393  64.8884 291.1603 0005232 116.1520 335.0569  2.13102945 81759
COSMOS 2436 (723)       
1 32395U 07065C   18178.37332954 -.00000043  00000-0  10000-3 0  9993
2 32395  64.8992 291.2131 0014312   4.2084  92.2264  2.13104338 81683
COSMOS 2456 (730)       
1 36111U 09070A   18177.63262744  .00000060  00000-0  00000-0 0  9992
2 36111  64.1875 170.7790 0006697 300.2545  69.6681  2.13102981 66402
COSMOS 2457 (733)       
1 36112U 09070B   18178.03813698  .00000056  00000-0  00000+0 0  9992
2 36112  64.1694 170.6755 0005731 196.1724 251.6739  2.13101595 66419
COSMOS 2458 (734)       
1 36113U 09070C   18177.63551306  .00000059  00000-0  10000-3 0  9991
2 36113  64.1749 170.6999 0003091 314.2503 232.2987  2.13096781 66405
COSMOS 2459 (731)       
1 36400U 10007A   18178.57023403 -.00000048  00000-0  10000-3 0  9997
2 36400  65.6022  52.0721 0027897 354.3093 173.4603  2.13102188 64777
COSMOS 2461 (735)       
1 36401U 10007B   18178.26020932 -.00000049  00000-0  10000-3 0  9999
2 36401  65.5924  52.0593 0008364  60.0894 140.4367  2.13102275 64760
COSMOS 2460 (732)       
1 36402U 10007C   18178.19513216 -.00000049  00000-0  10000-3 0  9994
2 36402  65.5842  52.0282 0001948  35.9008 155.2955  2.13101554 64760
COSMOS 2464 (736)       
1 37139U 10041C   18178.02823266 -.00000047  00000-0  00000+0 0  9994
2 37139  64.4932 290.9746 0023192  14.9810 353.9571  2.13102687 60830
COSMOS 2471 (701K)      
1 37372U 11009A   18177.44281120 -.00000053  00000-0  00000+0 0  9997
2 37372  65.5805  51.9998 0007024 234.8812 243.3206  2.13107467 57020
COSMOS 2474 (742)       
1 37829U 11055A   18178.27755037  .00000055  00000-0  00000+0 0  9991
2 37829  64.5113 171.4784 0011079 254.0543 108.7392  2.13101922 52417
COSMOS 2476 (744)       
1 37867U 11064A   18177.67015861  .00000061  00000-0  00000-0 0  9998
2 37867  64.4905 171.5609 0020626 245.7272  57.1443  2.13102003 51748
COSMOS 2477 (745)       
1 37868U 11064B   18177.57035056  .00000062  00000-0  00000+0 0  9996
2 37868  64.4996 171.6126 0018420 247.5173 157.6691  2.13101741 51708
COSMOS 2475 (743)       
1 37869U 11064C   18177.72552528  .00000060  00000-0  00000-0 0  9991
2 37869  64.5067 171.6022 0023134 268.6791 212.2721  2.13102109 51714
COSMOS 2485 (747)       
1 39155U 13019A   18177.70062027  .00000061  00000-0  00000-0 0  9992
2 39155  64.6602 171.6716 0020978 241.1494 129.9607  2.13101997 40224
COSMOS 2492 (754)       
1 39620U 14012A   18177.60785973 -.00000052  00000-0  10000-3 0  9999
2 39620  65.4735  51.9327 0015079 335.4744 359.2518  2.13103288 33165
COSMOS 2500 (755)       
1 40001U 14032A   18177.96041671 -.00000051  00000-0  00000-0 0  9990
2 40001  65.4149  51.8888 0004299 202.9366 264.5193  2.13102806 31395
COSMOS 2501 (702K)      
1 40315U 14075A   18177.66926385 -.00000052  00000-0  00000-0 0  9997
2 40315  64.2184 292.1970 0015871 204.1636 201.4522  2.13098626 27792
COSMOS 2514 (751)       
1 41330U 16008A   18178.29837977 -.00000050  00000-0  00000+0 0  9998
2 41330  65.2173  51.9277 0007594 216.5877 331.0450  2.13103241 18562
COSMOS 2516 (753)       
1 41554U 16032A   18177.71720815 -.00000052  00000-0  00000-0 0  9994
2 41554  64.4387 292.0638 0012223 212.4507 140.4247  2.13101581 16151
COSMOS 2522 (752)       
1 42939U 17055A   18178.46090854 -.00000044  00000-0  00000+0 0  9994
2 42939  64.6691 292.0061 0006828 237.7074 192.1383  2.13101793  5936
